COMMENT,ORIGINATOR,NORAD_CAT_ID,OBJECT_NAME,OBJECT_TYPE,CLASSIFICATION_TYPE,INTLDES,EPOCH,EPOCH_MICROSECONDS,MEAN_MOTION,ECCENTRICITY,INCLINATION,RA_OF_ASC_NODE,ARG_OF_PERICENTER,MEAN_ANOMALY,EPHEMERIS_TYPE,ELEMENT_SET_NO,REV_AT_EPOCH,BSTAR,MEAN_MOTION_DOT,MEAN_MOTION_DDOT,FILE,TLE_LINE0,TLE_LINE1,TLE_LINE2,OBJECT_ID,OBJECT_NUMBER,SEMIMAJOR_AXIS,PERIOD,APOGEE,PERIGEE,DECAYED
GENERATED VIA SPACETRACK.ORG API,18 SPCS,58292,UMBRA-08,PAYLOAD,U,23174AN,2024-09-09 03:44:15,194688,15.15480676,0.0003366,97.4466,324.4605,147.4409,212.7032,0,999,4631,0.0033816,0.00064458,0,4480636,0 UMBRA-08,1 58292U 23174AN  24253.15573142  .00064458  00000-0  33816-2 0  9997,2 58292  97.4466 324.4605 0003366 147.4409 212.7032 15.15480676 46319,2023-174AN,58292,6897.657,95.019,521.843,517.200,1
GENERATED VIA SPACETRACK.ORG API,18 SPCS,58292,UMBRA-08,PAYLOAD,U,23174AN,2024-09-09 19:35:01,487616,15.15567161,0.0003292,97.4467,325.1085,145.4806,214.6641,0,999,4641,0.0033323,0.00063666,0,4481145,0 UMBRA-08,1 58292U 23174AN  24253.81598944  .00063666  00000-0  33323-2 0  9990,2 58292  97.4467 325.1085 0003292 145.4806 214.6641 15.15567161 46410,2023-174AN,58292,6897.394,95.014,521.530,516.989,1
GENERATED VIA SPACETRACK.ORG API,18 SPCS,58292,UMBRA-08,PAYLOAD,U,23174AN,2024-09-09 19:35:01,487616,15.15567161,0.0003292,97.4467,325.1085,145.4806,214.6641,0,999,4641,0.0033323,0.00063666,0,4481180,0 UMBRA-08,1 58292U 23174AN  24253.81598944  .00063666  00000-0  33323-2 0  9990,2 58292  97.4467 325.1085 0003292 145.4806 214.6641 15.15567161 46410,2023-174AN,58292,6897.394,95.014,521.530,516.989,1
GENERATED VIA SPACETRACK.ORG API,18 SPCS,58292,UMBRA-08,PAYLOAD,U,23174AN,2024-09-10 17:46:00,916896,15.15682609,0.0003323,97.4472,326.0148,140.2988,219.8488,0,999,4655,0.0031959,0.00061236,0,4483177,0 UMBRA-08,1 58292U 23174AN  24254.74028839  .00061236  00000-0  31959-2 0  9998,2 58292  97.4472 326.0148 0003323 140.2988 219.8488 15.15682609 46551,2023-174AN,58292,6897.044,95.007,521.201,516.617,1
GENERATED VIA SPACETRACK.ORG API,18 SPCS,58292,UMBRA-08,PAYLOAD,U,23174AN,2024-09-11 11:11:43,508256,15.15761928,0.0003356,97.4473,326.7269,138.0575,222.0915,0,999,4666,0.0029628,0.00056859,0,4484467,0 UMBRA-08,1 58292U 23174AN  24255.46647579  .00056859  00000-0  29628-2 0  9991,2 58292  97.4473 326.7269 0003356 138.0575 222.0915 15.15761928 46661,2023-174AN,58292,6896.803,95.002,520.983,516.354,1
GENERATED VIA SPACETRACK.ORG API,18 SPCS,58292,UMBRA-08,PAYLOAD,U,23174AN,2024-09-11 11:11:43,508256,15.15761928,0.0003356,97.4473,326.7269,138.0575,222.0915,0,999,4666,0.0029628,0.00056859,0,4484570,0 UMBRA-08,1 58292U 23174AN  24255.46647579  .00056859  00000-0  29628-2 0  9991,2 58292  97.4473 326.7269 0003356 138.0575 222.0915 15.15761928 46661,2023-174AN,58292,6896.803,95.002,520.983,516.354,1
GENERATED VIA SPACETRACK.ORG API,18 SPCS,58292,UMBRA-08,PAYLOAD,U,23174AN,2024-09-11 17:31:58,270656,15.15788793,0.0003322,97.4474,326.9858,137.3821,222.767,0,999,4670,0.0028929,0.00055548,0,4485202,0 UMBRA-08,1 58292U 23174AN  24255.73053554  .00055548  00000-0  28929-2 0  9992,2 58292  97.4474 326.9858 0003322 137.3821 222.7670 15.15788793 46706,2023-174AN,58292,6896.722,95.000,520.878,516.296,1
GENERATED VIA SPACETRACK.ORG API,18 SPCS,58292,UMBRA-08,PAYLOAD,U,23174AN,2024-09-12 04:37:22,844064,15.15847669,0.0003377,97.4474,327.4386,137.1817,222.9679,0,999,4677,0.0027765,0.00053383,0,4486509,0 UMBRA-08,1 58292U 23174AN  24256.19262551  .00053383  00000-0  27765-2 0  9994,2 58292  97.4474 327.4386 0003377 137.1817 222.9679 15.15847669 46777,2023-174AN,58292,6896.543,94.996,520.737,516.079,1
GENERATED VIA SPACETRACK.ORG API,18 SPCS,58292,UMBRA-08,PAYLOAD,U,23174AN,2024-09-12 17:17:48,959520,15.15956559,0.0003201,97.4469,327.9567,135.1367,225.0125,0,999,4685,0.0080752,0.00158127,0,4487365,0 UMBRA-08,1 58292U 23174AN  24256.72070555  .00158127  00000-0  80752-2 0  9991,2 58292  97.4469 327.9567 0003201 135.1367 225.0125 15.15956559 46859,2023-174AN,58292,6896.213,94.990,520.286,515.871,1
GENERATED VIA SPACETRACK.ORG API,18 SPCS,58292,UMBRA-08,PAYLOAD,U,23174AN,2024-09-12 17:17:48,959520,15.15956559,0.0003201,97.4469,327.9567,135.1367,225.0125,0,999,4685,0.0080752,0.00158127,0,4487389,0 UMBRA-08,1 58292U 23174AN  24256.72070555  .00158127  00000-0  80752-2 0  9991,2 58292  97.4469 327.9567 0003201 135.1367 225.0125 15.15956559 46859,2023-174AN,58292,6896.213,94.990,520.286,515.871,1
GENERATED VIA SPACETRACK.ORG API,18 SPCS,58292,UMBRA-08,PAYLOAD,U,23174AN,2024-09-12 23:38:00,905280,15.1598154,0.0003219,97.4471,328.2154,136.1531,223.9957,0,999,4689,0.0046322,0.00089893,0,4487992,0 UMBRA-08,1 58292U 23174AN  24256.98473270  .00089893  00000-0  46322-2 0  9998,2 58292  97.4471 328.2154 0003219 136.1531 223.9957 15.15981540 46893,2023-174AN,58292,6896.137,94.988,520.222,515.782,1
GENERATED VIA SPACETRACK.ORG API,18 SPCS,58292,UMBRA-08,PAYLOAD,U,23174AN,2024-09-14 04:08:47,255424,15.16156219,0.0003067,97.4471,329.3809,135.1914,224.9567,0,999,4707,0.0049087,0.00095813,0,4490768,0 UMBRA-08,1 58292U 23174AN  24258.17276916  .00095813  00000-0  49087-2 0  9999,2 58292  97.4471 329.3809 0003067 135.1914 224.9567 15.16156219 47074,2023-174AN,58292,6895.608,94.977,519.587,515.358,1
GENERATED VIA SPACETRACK.ORG API,18 SPCS,58292,UMBRA-08,PAYLOAD,U,23174AN,2024-09-14 18:24:06,650496,15.16219117,0.0003038,97.4471,329.964,133.1564,226.9923,0,999,4716,0.0040174,0.00078355,0,4491514,0 UMBRA-08,1 58292U 23174AN  24258.76674364  .00078355  00000-0  40174-2 0  9993,2 58292  97.4471 329.9640 0003038 133.1564 226.9923 15.16219117 47165,2023-174AN,58292,6895.417,94.973,519.377,515.187,1
GENERATED VIA SPACETRACK.ORG API,18 SPCS,58292,UMBRA-08,PAYLOAD,U,23174AN,2024-09-14 18:24:06,650496,15.16219117,0.0003038,97.4471,329.964,133.1564,226.9923,0,999,4716,0.0040174,0.00078355,0,4491570,0 UMBRA-08,1 58292U 23174AN  24258.76674364  .00078355  00000-0  40174-2 0  9993,2 58292  97.4471 329.9640 0003038 133.1564 226.9923 15.16219117 47165,2023-174AN,58292,6895.417,94.973,519.377,515.187,1
GENERATED VIA SPACETRACK.ORG API,18 SPCS,58292,UMBRA-08,PAYLOAD,U,23174AN,2024-09-15 03:54:18,532800,15.16249542,0.0003043,97.4474,330.3522,133.9076,226.2408,0,999,4722,0.002849,0.00055421,0,4492241,0 UMBRA-08,1 58292U 23174AN  24259.16271450  .00055421  00000-0  28490-2 0  9993,2 58292  97.4474 330.3522 0003043 133.9076 226.2408 15.16249542 47228,2023-174AN,58292,6895.325,94.971,519.288,515.091,1
GENERATED VIA SPACETRACK.ORG API,18 SPCS,58292,UMBRA-08,PAYLOAD,U,23174AN,2024-09-15 16:34:33,20544,15.16302215,0.0002944,97.4474,330.8708,131.3005,228.8482,0,999,4730,0.0030808,0.00060063,0,4493626,0 UMBRA-08,1 58292U 23174AN  24259.69065996  .00060063  00000-0  30808-2 0  9991,2 58292  97.4474 330.8708 0002944 131.3005 228.8482 15.16302215 47308,2023-174AN,58292,6895.165,94.968,519.060,515.000,1
GENERATED VIA SPACETRACK.ORG API,18 SPCS,58292,UMBRA-08,PAYLOAD,U,23174AN,2024-09-16 05:14:45,934080,15.16352726,0.0003048,97.4477,331.3887,128.842,231.3085,0,999,4738,0.0025127,0.00048971,0,4494279,0 UMBRA-08,1 58292U 23174AN  24260.21858720  .00048971  00000-0  25127-2 0  9998,2 58292  97.4477 331.3887 0003048 128.8420 231.3085 15.16352726 47381,2023-174AN,58292,6895.012,94.965,518.978,514.775,1
GENERATED VIA SPACETRACK.ORG API,18 SPCS,58292,UMBRA-08,PAYLOAD,U,23174AN,2024-09-16 11:34:51,817152,15.16375234,0.000302,97.4477,331.6482,126.6761,233.475,0,999,4742,0.0027469,0.0005361,0,4494952,0 UMBRA-08,1 58292U 23174AN  24260.48254418  .00053610  00000-0  27469-2 0  9998,2 58292  97.4477 331.6482 0003020 126.6761 233.4750 15.16375234 47425,2023-174AN,58292,6894.944,94.963,518.891,514.726,1
GENERATED VIA SPACETRACK.ORG API,18 SPCS,58292,UMBRA-08,PAYLOAD,U,23174AN,2024-09-16 19:29:58,610688,15.16409316,0.0003017,97.4476,331.9719,125.901,234.2504,0,999,4747,0.0025255,0.00049302,0,4495681,0 UMBRA-08,1 58292U 23174AN  24260.81248392  .00049302  00000-0  25255-2 0  9993,2 58292  97.4476 331.9719 0003017 125.9010 234.2504 15.16409316 47475,2023-174AN,58292,6894.840,94.961,518.785,514.625,1
GENERATED VIA SPACETRACK.ORG API,18 SPCS,58292,UMBRA-08,PAYLOAD,U,23174AN,2024-09-17 05:00:05,856768,15.16496821,0.0002993,97.4476,332.3607,125.1072,235.0442,0,999,4753,0.0056812,0.00112231,0,4496324,0 UMBRA-08,1 58292U 23174AN  24261.20840112  .00112231  00000-0  56812-2 0  9990,2 58292  97.4476 332.3607 0002993 125.1072 235.0442 15.16496821 47532,2023-174AN,58292,6894.575,94.956,518.504,514.377,1
GENERATED VIA SPACETRACK.ORG API,18 SPCS,58292,UMBRA-08,PAYLOAD,U,23174AN,2024-09-17 05:00:05,856768,15.16496821,0.0002993,97.4476,332.3607,125.1072,235.0442,0,999,4753,0.0056812,0.00112231,0,4497321,0 UMBRA-08,1 58292U 23174AN  24261.20840112  .00112231  00000-0  56812-2 0  9990,2 58292  97.4476 332.3607 0002993 125.1072 235.0442 15.16496821 47532,2023-174AN,58292,6894.575,94.956,518.504,514.377,1
GENERATED VIA SPACETRACK.ORG API,18 SPCS,58292,UMBRA-08,PAYLOAD,U,23174AN,2024-09-17 17:40:13,924128,15.16557955,0.0003019,97.4473,332.8791,121.8356,238.3171,0,999,4761,0.0083665,0.00166849,0,4497653,0 UMBRA-08,1 58292U 23174AN  24261.73627227  .00166849  00000-0  83665-2 0  9998,2 58292  97.4473 332.8791 0003019 121.8356 238.3171 15.16557955 47616,2023-174AN,58292,6894.390,94.952,518.336,514.173,1
GENERATED VIA SPACETRACK.ORG API,18 SPCS,58292,UMBRA-08,PAYLOAD,U,23174AN,2024-09-17 17:40:13,924128,15.16557955,0.0003019,97.4473,332.8791,121.8356,238.3171,0,999,4761,0.0083665,0.00166849,0,4497690,0 UMBRA-08,1 58292U 23174AN  24261.73627227  .00166849  00000-0  83665-2 0  9998,2 58292  97.4473 332.8791 0003019 121.8356 238.3171 15.16557955 47616,2023-174AN,58292,6894.390,94.952,518.336,514.173,1
